{
  "norad_id": 63294,
  "name": "2025-055D",
  "history": [
    {
      "epoch": "2026-03-28T21:29:02.077152Z",
      "apogee_km": 531.3174259894695,
      "perigee_km": 508.86493494312344,
      "latitude_deg": 8.817789111810279e-06,
      "longitude_deg": 78.54219525433491,
      "height_km": 517.7697815451908,
      "semi_major_axis_km": 6898.228180466296,
      "eccentricity": 0.00162741,
      "inclination_deg": 97.6388,
      "raan_deg": 227.1099,
      "arg_perigee_deg": 61.4683,
      "mean_anomaly_deg": 298.8185,
      "mean_motion_rev_day": 15.15292341
    },
    {
      "epoch": "2026-03-29T03:49:23.887200Z",
      "apogee_km": 531.2748480900291,
      "perigee_km": 508.8625777287871,
      "latitude_deg": -2.400353590431154e-05,
      "longitude_deg": -16.543525093053777,
      "height_km": 517.6084708665721,
      "semi_major_axis_km": 6898.205712909408,
      "eccentricity": 0.0016245,
      "inclination_deg": 97.6388,
      "raan_deg": 227.3754,
      "arg_perigee_deg": 60.5979,
      "mean_anomaly_deg": 299.6872,
      "mean_motion_rev_day": 15.15299744
    },
    {
      "epoch": "2026-03-30T05:10:49.998144Z",
      "apogee_km": 531.0794548735867,
      "perigee_km": 508.8661616689915,
      "latitude_deg": 3.138733689557663e-05,
      "longitude_deg": -36.88161278289095,
      "height_km": 516.9578587169775,
      "semi_major_axis_km": 6898.109808271289,
      "eccentricity": 0.0016101,
      "inclination_deg": 97.639,
      "raan_deg": 228.4375,
      "arg_perigee_deg": 56.9433,
      "mean_anomaly_deg": 303.3343,
      "mean_motion_rev_day": 15.15331345
    },
    {
      "epoch": "2026-03-30T06:45:55.333152Z",
      "apogee_km": 531.0788873170186,
      "perigee_km": 508.8589844006683,
      "latitude_deg": -8.118482867422278e-06,
      "longitude_deg": -60.6525226879644,
      "height_km": 516.9149791322899,
      "semi_major_axis_km": 6898.105935858844,
      "eccentricity": 0.00161058,
      "inclination_deg": 97.639,
      "raan_deg": 228.5039,
      "arg_perigee_deg": 56.7134,
      "mean_anomaly_deg": 303.5638,
      "mean_motion_rev_day": 15.15332621
    }
  ]
}